{"type": "FeatureCollection", "features": [ {"type": "Feature", "properties": {"norad_id": 39620, "name": "COSMOS 2492 (754)", "group": "gnss", "lat": -64.9383080294514, "lon": -118.44785054384135, "alt_km": 19108.02808861885, "timestamp": "2025-12-26T12:57:39.515316+00:00", "meta": {"OBJECT_NAME": "COSMOS 2492 (754)", "OBJECT_ID": "2014-012A", "EPOCH": "2025-12-25T17:05:27.733056", "MEAN_MOTION": 2.13103333, "ECCENTRICITY": 0.00143014, "INCLINATION": 65.4007, "RA_OF_ASC_NODE": 319.831, "ARG_OF_PERICENTER": 314.035, "MEAN_ANOMALY": 45.8506, "EPHEMERIS_TYPE": 0, "CLASSIFICATION_TYPE": "U", "NORAD_CAT_ID": 39620, "ELEMENT_SET_NO": 999, "REV_AT_EPOCH": 9154, "BSTAR": 0, "MEAN_MOTION_DOT": -3.2e-07, "MEAN_MOTION_DDOT": 0}, "tle": {"line1": "1 39620U 14012A   25359.71212654 -.00000032  00000+0  00000+0 0  9994", "line2": "2 39620  65.4007 319.8310 0014301 314.0350  45.8506  2.13103333 91540"}}, "geometry": {"type": "Point", "coordinates": [-118.44785054384135, -64.9383080294514]}}, {"type": "Feature", "properties": {"norad_id": 39635, "name": "IRNSS-1B", "group": "gnss", "lat": 28.625729363429958, "lon": -13.84320586759525, "alt_km": 35760.312969676954, "timestamp": "2025-12-26T12:57:39.515327+00:00", "meta": {"OBJECT_NAME": "IRNSS-1B", "OBJECT_ID": "2014-017A", "EPOCH": "2025-12-24T18:29:47.559840", "MEAN_MOTION": 1.00272104, "ECCENTRICITY": 0.00185731, "INCLINATION": 29.2343, "RA_OF_ASC_NODE": 243.3872, "ARG_OF_PERICENTER": 174.7097, "MEAN_ANOMALY": 8.021, "EPHEMERIS_TYPE": 0, "CLASSIFICATION_TYPE": "U", "NORAD_CAT_ID": 39635, "ELEMENT_SET_NO": 999, "REV_AT_EPOCH": 4304, "BSTAR": 0, "MEAN_MOTION_DOT": 1.4e-06, "MEAN_MOTION_DDOT": 0}, "tle": {"line1": "1 39635U 14017A   25358.77068935  .00000140  00000+0  00000+0 0  9990", "line2": "2 39635  29.2343 243.3872 0018573 174.7097   8.0210  1.00272104 43048"}}, "geometry": {"type": "Point", "coordinates": [-13.84320586759525, 28.625729363429958]}}, {"type": "Feature", "properties": {"norad_id": 39727, "name": "LUCH 5V (SDCM/PRN 141)", "group": "gnss", "lat": -3.4326945836897957, "lon": 24.583740616418027, "alt_km": 35788.34392723024, "timestamp": "2025-12-26T12:57:39.515339+00:00", "meta": {"OBJECT_NAME": "LUCH 5V (SDCM/PRN 141)", "OBJECT_ID": "2014-023A", "EPOCH": "2025-12-26T03:12:44.481888", "MEAN_MOTION": 1.00273661, "ECCENTRICITY": 0.00037801, "INCLINATION": 4.7014, "RA_OF_ASC_NODE": 71.4239, "ARG_OF_PERICENTER": 214.8852, "MEAN_ANOMALY": 311.5075, "EPHEMERIS_TYPE": 0, "CLASSIFICATION_TYPE": "U", "NORAD_CAT_ID": 39727, "ELEMENT_SET_NO": 999, "REV_AT_EPOCH": 4262, "BSTAR": 0, "MEAN_MOTION_DOT": -2.49e-06, "MEAN_MOTION_DDOT": 0}, "tle": {"line1": "1 39727U 14023A   25360.13384817 -.00000249  00000+0  00000+0 0  9993", "line2": "2 39727   4.7014  71.4239 0003780 214.8852 311.5075  1.00273661 42622"}}, "geometry": {"type": "Point", "coordinates": [24.583740616418027, -3.4326945836897957]}}, {"type": "Feature", "properties": {"norad_id": 39741, "name": "GPS BIIF-6  (PRN 06)", "group": "gnss", "lat": 47.463989133076055, "lon": 24.240868652558223, "alt_km": 20199.48182439216, "timestamp": "2025-12-26T12:57:39.515351+00:00", "meta": {"OBJECT_NAME": "GPS BIIF-6  (PRN 06)", "OBJECT_ID": "2014-026A", "EPOCH": "2025-12-25T22:56:21.833664", "MEAN_MOTION": 2.00560326, "ECCENTRICITY": 0.00395057, "INCLINATION": 56.5784, "RA_OF_ASC_NODE": 338.2626, "ARG_OF_PERICENTER": 319.4307, "MEAN_ANOMALY": 40.2828, "EPHEMERIS_TYPE": 0, "CLASSIFICATION_TYPE": "U", "NORAD_CAT_ID": 39741, "ELEMENT_SET_NO": 999, "REV_AT_EPOCH": 8506, "BSTAR": 0, "MEAN_MOTION_DOT": -5.7e-07, "MEAN_MOTION_DDOT": 0}, "tle": {"line1": "1 39741U 14026A   25359.95580826 -.00000057  00000+0  00000+0 0  9995", "line2": "2 39741  56.5784 338.2626 0039505 319.4307  40.2828  2.00560326 85067"}}, "geometry": {"type": "Point", "coordinates": [24.240868652558223, 47.463989133076055]}}, {"type": "Feature", "properties": {"norad_id": 40001, "name": "COSMOS 2500 (755)", "group": "gnss", "lat": 33.07247232862158, "lon": 122.15167791040503, "alt_km": 19121.151378496794, "timestamp": "2025-12-26T12:57:39.515362+00:00", "meta": {"OBJECT_NAME": "COSMOS 2500 (755)", "OBJECT_ID": "2014-032A", "EPOCH": "2025-12-24T22:41:43.592352", "MEAN_MOTION": 2.13106238, "ECCENTRICITY": 0.0007709, "INCLINATION": 65.3365, "RA_OF_ASC_NODE": 319.6177, "ARG_OF_PERICENTER": 219.4903, "MEAN_ANOMALY": 140.4561, "EPHEMERIS_TYPE": 0, "CLASSIFICATION_TYPE": "U", "NORAD_CAT_ID": 40001, "ELEMENT_SET_NO": 999, "REV_AT_EPOCH": 8974, "BSTAR": 0, "MEAN_MOTION_DOT": -3.2e-07, "MEAN_MOTION_DDOT": 0}, "tle": {"line1": "1 40001U 14032A   25358.94564343 -.00000032  00000+0  00000+0 0  9990", "line2": "2 40001  65.3365 319.6177 0007709 219.4903 140.4561  2.13106238 89745"}}, "geometry": {"type": "Point", "coordinates": [122.15167791040503, 33.07247232862158]}}, {"type": "Feature", "properties": {"norad_id": 40105, "name": "GPS BIIF-7  (PRN 09)", "group": "gnss", "lat": -0.5771143305687397, "lon": 94.95261104469198, "alt_km": 20225.71423966812, "timestamp": "2025-12-26T12:57:39.515376+00:00", "meta": {"OBJECT_NAME": "GPS BIIF-7  (PRN 09)", "OBJECT_ID": "2014-045A", "EPOCH": "2025-12-23T13:11:32.096256", "MEAN_MOTION": 2.00573211, "ECCENTRICITY": 0.00324114, "INCLINATION": 55.2352, "RA_OF_ASC_NODE": 95.4677, "ARG_OF_PERICENTER": 120.1575, "MEAN_ANOMALY": 240.1743, "EPHEMERIS_TYPE": 0, "CLASSIFICATION_TYPE": "U", "NORAD_CAT_ID": 40105, "ELEMENT_SET_NO": 999, "REV_AT_EPOCH": 8255, "BSTAR": 0, "MEAN_MOTION_DOT": 8e-08, "MEAN_MOTION_DDOT": 0}, "tle": {"line1": "1 40105U 14045A   25357.54967704  .00000008  00000+0  00000+0 0  9994", "line2": "2 40105  55.2352  95.4677 0032411 120.1575 240.1743  2.00573211 82556"}}, "geometry": {"type": "Point", "coordinates": [94.95261104469198, -0.5771143305687397]}}, {"type": "Feature", "properties": {"norad_id": 40128, "name": "GSAT0201 (GALILEO 5)", "group": "gnss", "lat": 47.053439592405624, "lon": -10.866671733514886, "alt_km": 21401.974549248873, "timestamp": "2025-12-26T12:57:39.515388+00:00", "meta": {"OBJECT_NAME": "GSAT0201 (GALILEO 5)", "OBJECT_ID": "2014-050A", "EPOCH": "2025-12-25T20:43:24.583008", "MEAN_MOTION": 1.85519608, "ECCENTRICITY": 0.16491868, "INCLINATION": 49.0615, "RA_OF_ASC_NODE": 280.5285, "ARG_OF_PERICENTER": 172.7701, "MEAN_ANOMALY": 189.9925, "EPHEMERIS_TYPE": 0, "CLASSIFICATION_TYPE": "U", "NORAD_CAT_ID": 40128, "ELEMENT_SET_NO": 999, "REV_AT_EPOCH": 7510, "BSTAR": 0, "MEAN_MOTION_DOT": -4.2e-07, "MEAN_MOTION_DDOT": 0}, "tle": {"line1": "1 40128U 14050A   25359.86347897 -.00000042  00000+0  00000+0 0  9996", "line2": "2 40128  49.0615 280.5285 1649186 172.7701 189.9925  1.85519608 75101"}}, "geometry": {"type": "Point", "coordinates": [-10.866671733514886, 47.053439592405624]}}, {"type": "Feature", "properties": {"norad_id": 40129, "name": "GSAT0202 (GALILEO 6)", "group": "gnss", "lat": -41.057411591070625, "lon": -129.41123064975378, "alt_km": 23778.048424349734, "timestamp": "2025-12-26T12:57:39.515399+00:00", "meta": {"OBJECT_NAME": "GSAT0202 (GALILEO 6)", "OBJECT_ID": "2014-050B", "EPOCH": "2025-12-26T02:52:20.149824", "MEAN_MOTION": 1.85520258, "ECCENTRICITY": 0.1649751, "INCLINATION": 49.0773, "RA_OF_ASC_NODE": 279.6017, "ARG_OF_PERICENTER": 173.518, "MEAN_ANOMALY": 188.9673, "EPHEMERIS_TYPE": 0, "CLASSIFICATION_TYPE": "U", "NORAD_CAT_ID": 40129, "ELEMENT_SET_NO": 999, "REV_AT_EPOCH": 7727, "BSTAR": 0, "MEAN_MOTION_DOT": -4.2e-07, "MEAN_MOTION_DDOT": 0}, "tle": {"line1": "1 40129U 14050B   25360.11967766 -.00000042  00000+0  00000+0 0  9990", "line2": "2 40129  49.0773 279.6017 1649751 173.5180 188.9673  1.85520258 77279"}}, "geometry": {"type": "Point", "coordinates": [-129.41123064975378, -41.057411591070625]}}, {"type": "Feature", "properties": {"norad_id": 40269, "name": "IRNSS-1C", "group": "gnss", "lat": -5.985150700957025, "lon": 12.57380319766164, "alt_km": 35774.00391668055, "timestamp": "2025-12-26T12:57:39.515411+00:00", "meta": {"OBJECT_NAME": "IRNSS-1C", "OBJECT_ID": "2014-061A", "EPOCH": "2025-12-25T19:23:21.836832", "MEAN_MOTION": 1.00273138, "ECCENTRICITY": 0.00181158, "INCLINATION": 6.0752, "RA_OF_ASC_NODE": 92.3596, "ARG_OF_PERICENTER": 0.8311, "MEAN_ANOMALY": 15.2345, "EPHEMERIS_TYPE": 0, "CLASSIFICATION_TYPE": "U", "NORAD_CAT_ID": 40269, "ELEMENT_SET_NO": 999, "REV_AT_EPOCH": 4095, "BSTAR": 0, "MEAN_MOTION_DOT": -1.42e-06, "MEAN_MOTION_DDOT": 0}, "tle": {"line1": "1 40269U 14061A   25359.80789163 -.00000142  00000+0  00000+0 0  9995", "line2": "2 40269   6.0752  92.3596 0018115   0.8311  15.2345  1.00273138 40959"}}, "geometry": {"type": "Point", "coordinates": [12.57380319766164, -5.985150700957025]}}, {"type": "Feature", "properties": {"norad_id": 40294, "name": "GPS BIIF-8  (PRN 03)", "group": "gnss", "lat": 56.80597277942107, "lon": 123.84908904994974, "alt_km": 20022.286545828953, "timestamp": "2025-12-26T12:57:39.515425+00:00", "meta": {"OBJECT_NAME": "GPS BIIF-8  (PRN 03)", "OBJECT_ID": "2014-068A", "EPOCH": "2025-12-23T10:16:22.808064", "MEAN_MOTION": 2.00565491, "ECCENTRICITY": 0.00608386, "INCLINATION": 56.8656, "RA_OF_ASC_NODE": 37.7327, "ARG_OF_PERICENTER": 68.9718, "MEAN_ANOMALY": 291.747, "EPHEMERIS_TYPE": 0, "CLASSIFICATION_TYPE": "U", "NORAD_CAT_ID": 40294, "ELEMENT_SET_NO": 999, "REV_AT_EPOCH": 8168, "BSTAR": 0, "MEAN_MOTION_DOT": -4.8e-07, "MEAN_MOTION_DDOT": 0}, "tle": {"line1": "1 40294U 14068A   25357.42804176 -.00000048  00000+0  00000+0 0  9993", "line2": "2 40294  56.8656  37.7327 0060838  68.9718 291.7470  2.00565491 81685"}}, "geometry": {"type": "Point", "coordinates": [123.84908904994974, 56.80597277942107]}}]}